{
  "type": "FeatureCollection",
  "features": [
    {
      "type": "Feature",
      "properties": {
        "norad_id": 32393,
        "name": "COSMOS 2434 (721)",
        "group": "gnss",
        "lat": 63.32122099168261,
        "lon": -55.632461525239314,
        "alt_km": 19112.014671546855,
        "timestamp": "2025-12-27T10:28:59.037302+00:00",
        "meta_object_name": "COSMOS 2434 (721)",
        "meta_object_id": "2007-065A",
        "meta_epoch": "2025-12-27T02:08:22.083072",
        "meta_mean_motion": 2.13101378,
        "meta_eccentricity": 0.0004806,
        "meta_inclination": 64.316,
        "meta_ra_of_asc_node": 197.7187,
        "meta_arg_of_pericenter": 72.1868,
        "meta_mean_anomaly": 118.5002,
        "meta_ephemeris_type": 0,
        "meta_classification_type": "U",
        "meta_norad_cat_id": 32393,
        "meta_element_set_no": 999,
        "meta_rev_at_epoch": 14010,
        "meta_bstar": 0,
        "meta_mean_motion_dot": 1.2e-06,
        "meta_mean_motion_ddot": 0,
        "tle_line1": "1 32393U 07065A   25361.08914448  .00000120  00000+0  00000+0 0  9994",
        "tle_line2": "2 32393  64.3160 197.7187 0004806  72.1868 118.5002  2.13101378140101"
      },
      "geometry": {
        "type": "Point",
        "coordinates": [
          -55.632461525239314,
          63.32122099168261
        ]
      }
    },
    {
      "type": "Feature",
      "properties": {
        "norad_id": 32395,
        "name": "COSMOS 2436 (723)",
        "group": "gnss",
        "lat": -43.86812549422059,
        "lon": 45.33362931821354,
        "alt_km": 19170.171575599532,
        "timestamp": "2025-12-27T10:28:59.037314+00:00",
        "meta_object_name": "COSMOS 2436 (723)",
        "meta_object_id": "2007-065C",
        "meta_epoch": "2025-12-26T09:51:08.082144",
        "meta_mean_motion": 2.13100172,
        "meta_eccentricity": 0.0017813,
        "meta_inclination": 64.3246,
        "meta_ra_of_asc_node": 197.8121,
        "meta_arg_of_pericenter": 10.2944,
        "meta_mean_anomaly": 152.7871,
        "meta_ephemeris_type": 0,
        "meta_classification_type": "U",
        "meta_norad_cat_id": 32395,
        "meta_element_set_no": 999,
        "meta_rev_at_epoch": 14004,
        "meta_bstar": 0,
        "meta_mean_motion_dot": 1.14e-06,
        "meta_mean_motion_ddot": 0,
        "tle_line1": "1 32395U 07065C   25360.41051021  .00000114  00000+0  00000+0 0  9994",
        "tle_line2": "2 32395  64.3246 197.8121 0017813  10.2944 152.7871  2.13100172140045"
      },
      "geometry": {
        "type": "Point",
        "coordinates": [
          45.33362931821354,
          -43.86812549422059
        ]
      }
    },
    {
      "type": "Feature",
      "properties": {
        "norad_id": 32711,
        "name": "GPS BIIRM-6 (PRN 07)",
        "group": "gnss",
        "lat": -29.0694899335386,
        "lon": 0.17307644498575392,
        "alt_km": 19709.554919820297,
        "timestamp": "2025-12-27T10:28:59.037325+00:00",
        "meta_object_name": "GPS BIIRM-6 (PRN 07)",
        "meta_object_id": "2008-012A",
        "meta_epoch": "2025-12-26T15:12:37.851552",
        "meta_mean_motion": 2.00566161,
        "meta_eccentricity": 0.02030689,
        "meta_inclination": 54.4786,
        "meta_ra_of_asc_node": 156.8183,
        "meta_arg_of_pericenter": 245.1136,
        "meta_mean_anomaly": 112.7544,
        "meta_ephemeris_type": 0,
        "meta_classification_type": "U",
        "meta_norad_cat_id": 32711,
        "meta_element_set_no": 999,
        "meta_rev_at_epoch": 13029,
        "meta_bstar": 0,
        "meta_mean_motion_dot": 1.07e-06,
        "meta_mean_motion_ddot": 0,
        "tle_line1": "1 32711U 08012A   25360.63377143  .00000107  00000+0  00000+0 0  9991",
        "tle_line2": "2 32711  54.4786 156.8183 0203068 245.1136 112.7544  2.00566161130299"
      },
      "geometry": {
        "type": "Point",
        "coordinates": [
          0.17307644498575392,
          -29.0694899335386
        ]
      }
    },
    {
      "type": "Feature",
      "properties": {
        "norad_id": 35752,
        "name": "GPS BIIRM-8 (PRN 05)",
        "group": "gnss",
        "lat": -44.59073785878715,
        "lon": -104.2874726196943,
        "alt_km": 20312.50865506242,
        "timestamp": "2025-12-27T10:28:59.037337+00:00",
        "meta_object_name": "GPS BIIRM-8 (PRN 05)",
        "meta_object_id": "2009-043A",
        "meta_epoch": "2025-12-26T02:26:22.079616",
        "meta_mean_motion": 2.00564782,
        "meta_eccentricity": 0.00515557,
        "meta_inclination": 56.1002,
        "meta_ra_of_asc_node": 34.2563,
        "meta_arg_of_pericenter": 81.6915,
        "meta_mean_anomaly": 271.8027,
        "meta_ephemeris_type": 0,
        "meta_classification_type": "U",
        "meta_norad_cat_id": 35752,
        "meta_element_set_no": 999,
        "meta_rev_at_epoch": 11988,
        "meta_bstar": 0,
        "meta_mean_motion_dot": -5.1e-07,
        "meta_mean_motion_ddot": 0,
        "tle_line1": "1 35752U 09043A   25360.10164444 -.00000051  00000+0  00000+0 0  9993",
        "tle_line2": "2 35752  56.1002  34.2563 0051555  81.6915 271.8027  2.00564782119880"
      },
      "geometry": {
        "type": "Point",
        "coordinates": [
          -104.2874726196943,
          -44.59073785878715
        ]
      }
    },
    {
      "type": "Feature",
      "properties": {
        "norad_id": 36111,
        "name": "COSMOS 2456 (730)",
        "group": "gnss",
        "lat": -60.79664077707151,
        "lon": -46.31350701865522,
        "alt_km": 19129.004891692606,
        "timestamp": "2025-12-27T10:28:59.037348+00:00",
        "meta_object_name": "COSMOS 2456 (730)",
        "meta_object_id": "2009-070A",
        "meta_epoch": "2025-12-27T04:41:41.219808",
        "meta_mean_motion": 2.13103691,
        "meta_eccentricity": 0.0003703,
        "meta_inclination": 64.9075,
        "meta_ra_of_asc_node": 76.844,
        "meta_arg_of_pericenter": 295.0065,
        "meta_mean_anomaly": 134.5252,
        "meta_ephemeris_type": 0,
        "meta_classification_type": "U",
        "meta_norad_cat_id": 36111,
        "meta_element_set_no": 999,
        "meta_rev_at_epoch": 12476,
        "meta_bstar": 0,
        "meta_mean_motion_dot": -1.5e-07,
        "meta_mean_motion_ddot": 0,
        "tle_line1": "1 36111U 09070A   25361.19561597 -.00000015  00000+0  00000+0 0  9993",
        "tle_line2": "2 36111  64.9075  76.8440 0003703 295.0065 134.5252  2.13103691124762"
      },
      "geometry": {
        "type": "Point",
        "coordinates": [
          -46.31350701865522,
          -60.79664077707151
        ]
      }
    },
    {
      "type": "Feature",
      "properties": {
        "norad_id": 36112,
        "name": "COSMOS 2457 (733)",
        "group": "gnss",
        "lat": 21.157207261198877,
        "lon": 87.13472560387099,
        "alt_km": 19136.39218306598,
        "timestamp": "2025-12-27T10:28:59.037360+00:00",
        "meta_object_name": "COSMOS 2457 (733)",
        "meta_object_id": "2009-070B",
        "meta_epoch": "2025-12-26T13:03:04.060800",
        "meta_mean_motion": 2.13101072,
        "meta_eccentricity": 0.0004395,
        "meta_inclination": 64.8927,
        "meta_ra_of_asc_node": 76.7135,
        "meta_arg_of_pericenter": 164.2484,
        "meta_mean_anomaly": 254.2411,
        "meta_ephemeris_type": 0,
        "meta_classification_type": "U",
        "meta_norad_cat_id": 36112,
        "meta_element_set_no": 999,
        "meta_rev_at_epoch": 12475,
        "meta_bstar": 0,
        "meta_mean_motion_dot": -1e-07,
        "meta_mean_motion_ddot": 0,
        "tle_line1": "1 36112U 09070B   25360.54379700 -.00000010  00000+0  00000+0 0  9990",
        "tle_line2": "2 36112  64.8927  76.7135 0004395 164.2484 254.2411  2.13101072124755"
      },
      "geometry": {
        "type": "Point",
        "coordinates": [
          87.13472560387099,
          21.157207261198877
        ]
      }
    },
    {
      "type": "Feature",
      "properties": {
        "norad_id": 36402,
        "name": "COSMOS 2460 (732)",
        "group": "gnss",
        "lat": 21.101026187379773,
        "lon": -29.61769453183787,
        "alt_km": 19128.23319576161,
        "timestamp": "2025-12-27T10:28:59.037372+00:00",
        "meta_object_name": "COSMOS 2460 (732)",
        "meta_object_id": "2010-007C",
        "meta_epoch": "2025-12-27T01:42:51.563232",
        "meta_mean_motion": 2.13106312,
        "meta_eccentricity": 0.0002473,
        "meta_inclination": 65.5217,
        "meta_ra_of_asc_node": 320.2897,
        "meta_arg_of_pericenter": 284.8889,
        "meta_mean_anomaly": 178.0863,
        "meta_ephemeris_type": 0,
        "meta_classification_type": "U",
        "meta_norad_cat_id": 36402,
        "meta_element_set_no": 999,
        "meta_rev_at_epoch": 12306,
        "meta_bstar": 0,
        "meta_mean_motion_dot": -3.6e-07,
        "meta_mean_motion_ddot": 0,
        "tle_line1": "1 36402U 10007C   25361.07143013 -.00000036  00000+0  00000+0 0  9997",
        "tle_line2": "2 36402  65.5217 320.2897 0002473 284.8889 178.0863  2.13106312123061"
      },
      "geometry": {
        "type": "Point",
        "coordinates": [
          -29.61769453183787,
          21.101026187379773
        ]
      }
    }
  ]
}